[{"OBJECT_NAME":"CSTP 1.2 (STC 1.2)","OBJECT_ID":"2023-091W","EPOCH":"2026-03-09T23:12:27.821952","MEAN_MOTION":15.2718076,"ECCENTRICITY":0.00204388,"INCLINATION":97.5258,"RA_OF_ASC_NODE":134.3262,"ARG_OF_PERICENTER":84.9592,"MEAN_ANOMALY":275.3979,"EPHEMERIS_TYPE":0,"CLASSIFICATION_TYPE":"U","NORAD_CAT_ID":57186,"ELEMENT_SET_NO":999,"REV_AT_EPOCH":14930,"BSTAR":0.00043035718,"MEAN_MOTION_DOT":0.00011466,"MEAN_MOTION_DDOT":0},{"OBJECT_NAME":"STARLINK-33868","OBJECT_ID":"2025-087G","EPOCH":"2026-03-09T15:34:38.033184","MEAN_MOTION":15.30145731,"ECCENTRICITY":0.0001494,"INCLINATION":53.1582,"RA_OF_ASC_NODE":219.7261,"ARG_OF_PERICENTER":65.8785,"MEAN_ANOMALY":294.2371,"EPHEMERIS_TYPE":0,"CLASSIFICATION_TYPE":"U","NORAD_CAT_ID":63703,"ELEMENT_SET_NO":999,"REV_AT_EPOCH":4919,"BSTAR":-0.00042921,"MEAN_MOTION_DOT":-0.00013028,"MEAN_MOTION_DDOT":0}]
